{
  "type": "FeatureCollection",
  "features": [
    {
      "type": "Feature",
      "properties": {
        "norad_id": 36180,
        "name": "FENGYUN 1C DEB",
        "group": "fengyun-1c-debris",
        "lat": 40.15373596803813,
        "lon": 56.962973828958866,
        "alt_km": 723.8346382825875,
        "timestamp": "2025-12-27T03:58:44.438586+00:00",
        "meta_object_name": "FENGYUN 1C DEB",
        "meta_object_id": "1999-025DTD",
        "meta_epoch": "2025-12-05T21:21:22.276224",
        "meta_mean_motion": 14.20680074,
        "meta_eccentricity": 0.02106275,
        "meta_inclination": 98.4572,
        "meta_ra_of_asc_node": 43.7979,
        "meta_arg_of_pericenter": 50.8055,
        "meta_mean_anomaly": 311.1621,
        "meta_ephemeris_type": 0,
        "meta_classification_type": "U",
        "meta_norad_cat_id": 36180,
        "meta_element_set_no": 999,
        "meta_rev_at_epoch": 70486,
        "meta_bstar": 0.00091841135,
        "meta_mean_motion_dot": 2.432e-05,
        "meta_mean_motion_ddot": 0,
        "tle_line1": "1 36180U 99025DTD 25339.88984116  .00002432  00000+0  91841-3 0  9996",
        "tle_line2": "2 36180  98.4572  43.7979 0210627  50.8055 311.1621 14.20680074704867"
      },
      "geometry": {
        "type": "Point",
        "coordinates": [
          56.962973828958866,
          40.15373596803813
        ]
      }
    },
    {
      "type": "Feature",
      "properties": {
        "norad_id": 36182,
        "name": "FENGYUN 1C DEB",
        "group": "fengyun-1c-debris",
        "lat": -72.46512537997111,
        "lon": -40.0902005628852,
        "alt_km": 788.5326869974906,
        "timestamp": "2025-12-27T03:58:44.438595+00:00",
        "meta_object_name": "FENGYUN 1C DEB",
        "meta_object_id": "1999-025DTF",
        "meta_epoch": "2025-12-25T02:07:08.173920",
        "meta_mean_motion": 14.348194,
        "meta_eccentricity": 0.00224624,
        "meta_inclination": 99.0895,
        "meta_ra_of_asc_node": 287.2829,
        "meta_arg_of_pericenter": 41.9095,
        "meta_mean_anomaly": 318.3803,
        "meta_ephemeris_type": 0,
        "meta_classification_type": "U",
        "meta_norad_cat_id": 36182,
        "meta_element_set_no": 999,
        "meta_rev_at_epoch": 88134,
        "meta_bstar": 0.0016067011,
        "meta_mean_motion_dot": 4.527e-05,
        "meta_mean_motion_ddot": 0,
        "tle_line1": "1 36182U 99025DTF 25359.08828905  .00004527  00000+0  16067-2 0  9998",
        "tle_line2": "2 36182  99.0895 287.2829 0022462  41.9095 318.3803 14.34819400881348"
      },
      "geometry": {
        "type": "Point",
        "coordinates": [
          -40.0902005628852,
          -72.46512537997111
        ]
      }
    },
    {
      "type": "Feature",
      "properties": {
        "norad_id": 36186,
        "name": "FENGYUN 1C DEB",
        "group": "fengyun-1c-debris",
        "lat": -68.60567441816596,
        "lon": -109.11562661992758,
        "alt_km": 517.6728638766363,
        "timestamp": "2025-12-27T03:58:44.438604+00:00",
        "meta_object_name": "FENGYUN 1C DEB",
        "meta_object_id": "1999-025DTK",
        "meta_epoch": "2025-12-15T21:11:23.031744",
        "meta_mean_motion": 15.12863238,
        "meta_eccentricity": 0.00117449,
        "meta_inclination": 98.9868,
        "meta_ra_of_asc_node": 213.7545,
        "meta_arg_of_pericenter": 332.6772,
        "meta_mean_anomaly": 45.2682,
        "meta_ephemeris_type": 0,
        "meta_classification_type": "U",
        "meta_norad_cat_id": 36186,
        "meta_element_set_no": 999,
        "meta_rev_at_epoch": 61618,
        "meta_bstar": 0.0071053274,
        "meta_mean_motion_dot": 0.00127217,
        "meta_mean_motion_ddot": 0,
        "tle_line1": "1 36186U 99025DTK 25349.88290546  .00127217  00000+0  71053-2 0  9991",
        "tle_line2": "2 36186  98.9868 213.7545 0011744 332.6772  45.2682 15.12863238616186"
      },
      "geometry": {
        "type": "Point",
        "coordinates": [
          -109.11562661992758,
          -68.60567441816596
        ]
      }
    },
    {
      "type": "Feature",
      "properties": {
        "norad_id": 36188,
        "name": "FENGYUN 1C DEB",
        "group": "fengyun-1c-debris",
        "lat": -77.97266797764726,
        "lon": -123.04170632682121,
        "alt_km": 663.2505162187499,
        "timestamp": "2025-12-27T03:58:44.438613+00:00",
        "meta_object_name": "FENGYUN 1C DEB",
        "meta_object_id": "1999-025DTM",
        "meta_epoch": "2025-12-23T18:14:27.373920",
        "meta_mean_motion": 14.60921287,
        "meta_eccentricity": 0.00481334,
        "meta_inclination": 98.5852,
        "meta_ra_of_asc_node": 98.5873,
        "meta_arg_of_pericenter": 270.3481,
        "meta_mean_anomaly": 89.2203,
        "meta_ephemeris_type": 0,
        "meta_classification_type": "U",
        "meta_norad_cat_id": 36188,
        "meta_element_set_no": 999,
        "meta_rev_at_epoch": 88213,
        "meta_bstar": 0.0025681041,
        "meta_mean_motion_dot": 0.00012749,
        "meta_mean_motion_ddot": 0,
        "tle_line1": "1 36188U 99025DTM 25357.76003905  .00012749  00000+0  25681-2 0  9999",
        "tle_line2": "2 36188  98.5852  98.5873 0048133 270.3481  89.2203 14.60921287882135"
      },
      "geometry": {
        "type": "Point",
        "coordinates": [
          -123.04170632682121,
          -77.97266797764726
        ]
      }
    },
    {
      "type": "Feature",
      "properties": {
        "norad_id": 36198,
        "name": "FENGYUN 1C DEB",
        "group": "fengyun-1c-debris",
        "lat": 58.382055863624885,
        "lon": -135.85989667355332,
        "alt_km": 811.56590037163,
        "timestamp": "2025-12-27T03:58:44.438622+00:00",
        "meta_object_name": "FENGYUN 1C DEB",
        "meta_object_id": "1999-025DTX",
        "meta_epoch": "2025-12-24T00:22:26.192352",
        "meta_mean_motion": 14.07956534,
        "meta_eccentricity": 0.00962767,
        "meta_inclination": 98.6238,
        "meta_ra_of_asc_node": 26.8596,
        "meta_arg_of_pericenter": 83.715,
        "meta_mean_anomaly": 277.4975,
        "meta_ephemeris_type": 0,
        "meta_classification_type": "U",
        "meta_norad_cat_id": 36198,
        "meta_element_set_no": 999,
        "meta_rev_at_epoch": 63746,
        "meta_bstar": 0.0016668418,
        "meta_mean_motion_dot": 2.915e-05,
        "meta_mean_motion_ddot": 0,
        "tle_line1": "1 36198U 99025DTX 25358.01558093  .00002915  00000+0  16668-2 0  9991",
        "tle_line2": "2 36198  98.6238  26.8596 0096276  83.7150 277.4975 14.07956534637466"
      },
      "geometry": {
        "type": "Point",
        "coordinates": [
          -135.85989667355332,
          58.382055863624885
        ]
      }
    },
    {
      "type": "Feature",
      "properties": {
        "norad_id": 36199,
        "name": "FENGYUN 1C DEB",
        "group": "fengyun-1c-debris",
        "lat": 16.160602775856454,
        "lon": 19.19157391046316,
        "alt_km": 727.8645936347757,
        "timestamp": "2025-12-27T03:58:44.438631+00:00",
        "meta_object_name": "FENGYUN 1C DEB",
        "meta_object_id": "1999-025DTY",
        "meta_epoch": "2025-12-24T00:19:09.568416",
        "meta_mean_motion": 14.29665492,
        "meta_eccentricity": 0.00924714,
        "meta_inclination": 98.2889,
        "meta_ra_of_asc_node": 18.6118,
        "meta_arg_of_pericenter": 34.3692,
        "meta_mean_anomaly": 326.3427,
        "meta_ephemeris_type": 0,
        "meta_classification_type": "U",
        "meta_norad_cat_id": 36199,
        "meta_element_set_no": 999,
        "meta_rev_at_epoch": 65141,
        "meta_bstar": 0.00025510375,
        "meta_mean_motion_dot": 6.44e-06,
        "meta_mean_motion_ddot": 0,
        "tle_line1": "1 36199U 99025DTY 25358.01330519  .00000644  00000+0  25510-3 0  9997",
        "tle_line2": "2 36199  98.2889  18.6118 0092471  34.3692 326.3427 14.29665492651411"
      },
      "geometry": {
        "type": "Point",
        "coordinates": [
          19.19157391046316,
          16.160602775856454
        ]
      }
    },
    {
      "type": "Feature",
      "properties": {
        "norad_id": 36200,
        "name": "FENGYUN 1C DEB",
        "group": "fengyun-1c-debris",
        "lat": -60.245274640335545,
        "lon": -119.83735256578194,
        "alt_km": 699.5696508379615,
        "timestamp": "2025-12-27T03:58:44.438640+00:00",
        "meta_object_name": "FENGYUN 1C DEB",
        "meta_object_id": "1999-025DTZ",
        "meta_epoch": "2025-12-18T11:29:22.430112",
        "meta_mean_motion": 14.58878702,
        "meta_eccentricity": 0.00334665,
        "meta_inclination": 99.3866,
        "meta_ra_of_asc_node": 67.1749,
        "meta_arg_of_pericenter": 349.3175,
        "meta_mean_anomaly": 10.7306,
        "meta_ephemeris_type": 0,
        "meta_classification_type": "U",
        "meta_norad_cat_id": 36200,
        "meta_element_set_no": 999,
        "meta_rev_at_epoch": 73444,
        "meta_bstar": 0.0030254182,
        "meta_mean_motion_dot": 0.00014247,
        "meta_mean_motion_ddot": 0,
        "tle_line1": "1 36200U 99025DTZ 25352.47873183  .00014247  00000+0  30254-2 0  9997",
        "tle_line2": "2 36200  99.3866  67.1749 0033466 349.3175  10.7306 14.58878702734441"
      },
      "geometry": {
        "type": "Point",
        "coordinates": [
          -119.83735256578194,
          -60.245274640335545
        ]
      }
    }
  ]
}